NORAD_CAT_ID,OBJECT_NAME,OBJECT_TYPE,EPOCH,MEAN_MOTION,ECCENTRICITY,INCLINATION,RA_OF_ASC_NODE,ARG_OF_PERICENTER,MEAN_ANOMALY,BSTAR,MEAN_MOTION_DOT,MEAN_MOTION_DDOT,TLE_LINE0,TLE_LINE1,TLE_LINE2,SEMIMAJOR_AXIS,PERIOD,APOGEE,PERIGEE,DECAYED
53748.0,STARLINK-4669,PAYLOAD,2022-10-12 14:00:01,15.33924879,0.0001317,53.2174,90.147,100.7504,164.8049,-0.039498,-0.01193781,0.0,0 STARLINK-4669,1 53748U 22107BA  22285.58334491 -.01193781  00000-0 -39498-1 0  9991,2 53748  53.2174  90.1470 0001317 100.7504 164.8049 15.33924879  1308,6842.253000000002,93.877,465.019,463.217,0.0
53748.0,STARLINK-4669,PAYLOAD,2022-10-12 22:00:00,15.33066029,0.0001181,53.2173,88.5943,97.4046,209.3632,-0.040467,-0.01190377,0.0,0 STARLINK-4669,1 53748U 22107BA  22285.91667824 -.01190377  00000-0 -40467-1 0  9993,2 53748  53.2173  88.5943 0001181  97.4046 209.3632 15.33066029  6026,6844.808000000001,93.929,467.481,465.865,0.0
53748.0,STARLINK-4669,PAYLOAD,2022-10-13 14:00:01,15.31354617,0.0001127,53.2175,85.4911,96.2041,289.8994,-0.04291,-0.01211883,0.0,0 STARLINK-4669,1 53748U 22107BA  22286.58334491 -.01211883  00000-0 -42910-1 0  9999,2 53748  53.2175  85.4911 0001127  96.2041 289.8994 15.31354617  1302,6849.906999999997,94.034,472.544,471.0,0.0
53748.0,STARLINK-4669,PAYLOAD,2022-10-13 20:00:01,15.30710608,0.0001193,53.2175,84.3311,98.5995,226.2562,-0.0437,-0.01209752,0.0,0 STARLINK-4669,1 53748U 22107BA  22286.83335648 -.01209752  00000-0 -43700-1 0  9992,2 53748  53.2175  84.3311 0001193  98.5995 226.2562 15.30710608  6160,6851.828,94.074,474.51,472.875,0.0
53748.0,STARLINK-4669,PAYLOAD,2022-10-13 22:00:00,15.30494641,0.0001127999999999,53.2173,83.9443,87.6213,336.6054,-0.043872,-0.01206603,0.0,0 STARLINK-4669,1 53748U 22107BA  22286.91667824 -.01206603  00000-0 -43872-1 0  9997,2 53748  53.2173  83.9443 0001128  87.6213 336.6054 15.30494641  1308,6852.472,94.087,475.11,473.565,0.0
53748.0,STARLINK-4669,PAYLOAD,2022-10-14 14:00:01,15.28781875,0.0001326,53.2175,80.8533,95.9599,41.423,-0.046389,-0.01209559,0.0,0 STARLINK-4669,1 53748U 22107BA  22287.58334491 -.01209559  00000-0 -46389-1 0  9991,2 53748  53.2175  80.8533 0001326  95.9599  41.4230 15.28781875  1307,6857.59,94.193,480.364,478.545,0.0
53748.0,STARLINK-4669,PAYLOAD,2022-10-14 16:00:00,15.28565627,0.0001398,53.2174,80.4682,101.2814,134.9566,-0.0465649999999999,-0.01206363,0.0,0 STARLINK-4669,1 53748U 22107BA  22287.66667824 -.01206363  00000-0 -46565-1 0  9995,2 53748  53.2174  80.4682 0001398 101.2814 134.9566 15.28565627  6295,6858.236,94.206,481.06,479.143,0.0
53748.0,STARLINK-4669,PAYLOAD,2022-10-14 22:00:00,15.27922414,0.0001333,53.2173,79.3124,94.5622,77.8537,-0.047439,-0.01205016,0.0,0 STARLINK-4669,1 53748U 22107BA  22287.91667824 -.01205016  00000-0 -47439-1 0  9998,2 53748  53.2173  79.3124 0001333  94.5622  77.8537 15.27922414  1302,6860.161,94.246,482.94,481.112,0.0
53748.0,STARLINK-4669,PAYLOAD,2022-10-15 14:00:01,15.26208757,0.0001564999999999,53.2175,76.2338,55.0759,184.3158,-0.050032,-0.01206015,0.0,0 STARLINK-4669,1 53748U 22107BA  22288.58334491 -.01206015  00000-0 -50032-1 0  9996,2 53748  53.2175  76.2338 0001565  55.0759 184.3158 15.26208757  1306,6865.295,94.351,488.235,486.086,0.0
53748.0,STARLINK-4669,PAYLOAD,2022-10-15 22:00:01,15.25352522,0.0001304,53.2172,74.6986,71.343,200.0543,-0.0513929999999999,-0.01206934,0.0,0 STARLINK-4669,1 53748U 22107BA  22288.91668981 -.01206934  00000-0 -51393-1 0  9998,2 53748  53.2172  74.6986 0001304  71.3430 200.0543 15.25352522  1305,6867.864000000001,94.404,490.625,488.834,0.0
53748.0,STARLINK-4669,PAYLOAD,2022-10-16 06:00:00,15.24493191,0.0001345,53.2174,73.163,56.1255,246.1232,-0.0525919999999999,-0.01203769,0.0,0 STARLINK-4669,1 53748U 22107BA  22289.25001157 -.01203769  00000-0 -52592-1 0  9997,2 53748  53.2174  73.1630 0001345  56.1255 246.1232 15.24493191  6531,6870.445,94.458,493.234,491.386,0.0
53748.0,STARLINK-4669,PAYLOAD,2022-10-16 14:00:01,15.23638268,0.0001419999999999,53.2175,71.6322,50.8773,281.2526,-0.0541179999999999,-0.01207053,0.0,0 STARLINK-4669,1 53748U 22107BA  22289.58334491 -.01207053  00000-0 -54118-1 0  9999,2 53748  53.2175  71.6322 0001420  50.8773 281.2526 15.23638268  1304,6873.014,94.511,495.855,493.904,0.0
53748.0,STARLINK-4669,PAYLOAD,2022-10-16 22:00:00,15.22781839,0.0001531999999999,53.2172,70.10300000000001,40.8201,320.1619,-0.05555,-0.01207681,0.0,0 STARLINK-4669,1 53748U 22107BA  22289.91667824 -.01207681  00000-0 -55550-1 0  9993,2 53748  53.2172  70.1030 0001532  40.8201 320.1619 15.22781839  1319,6875.590999999999,94.564,498.51,496.403,0.0
53748.0,STARLINK-4669,PAYLOAD,2022-10-17 14:00:01,15.21067036,0.0001592,53.2175,67.04899999999999,43.6079,11.9905,-0.058438,-0.01207539,0.0,0 STARLINK-4669,1 53748U 22107BA  22290.58334491 -.01207539  00000-0 -58438-1 0  9999,2 53748  53.2175  67.0490 0001592  43.6079  11.9905 15.21067036  1304,6880.7580000000025,94.67,503.718,501.527,0.0
53748.0,STARLINK-4669,PAYLOAD,2022-10-17 22:00:00,15.20219862,0.0001598,53.2169,65.5253,40.4763,40.8805,-0.0606549999999999,-0.0122128999999999,0.0,0 STARLINK-4669,1 53748U 22107BA  22290.91667824 -.01221290  00000-0 -60655-1 0  9999,2 53748  53.2169  65.5253 0001598  40.4763  40.8805 15.20219862  1303,6883.314,94.723,506.279,504.079,0.0
53748.0,STARLINK-4669,PAYLOAD,2022-10-18 14:00:01,15.18494012,0.000178,53.2174,62.4836,44.3376,85.46,-0.0628659999999999,-0.01205051,0.0,0 STARLINK-4669,1 53748U 22107BA  22291.58334491 -.01205051  00000-0 -62866-1 0  9997,2 53748  53.2174  62.4836 0001780  44.3376  85.4600 15.18494012  1305,6888.528,94.831,511.62,509.167,0.0
53748.0,STARLINK-4669,PAYLOAD,2022-10-18 22:00:00,15.17558901,0.0001928,53.2168,60.9656,40.1817,112.3252,-0.058159,-0.01093817,0.0,0 STARLINK-4669,1 53748U 22107BA  22291.91667824 -.01093817  00000-0 -58159-1 0  9998,2 53748  53.2168  60.9656 0001928  40.1817 112.3252 15.17558901  1309,6891.358,94.889,514.552,511.894,0.0
53748.0,STARLINK-4669,PAYLOAD,2022-10-19 06:00:00,15.16780617,0.0001764999999999,53.2172,59.4485,46.1717,127.942,-0.066152,-0.01206604,0.0,0 STARLINK-4669,1 53748U 22107BA  22292.25001157 -.01206604  00000-0 -66152-1 0  9999,2 53748  53.2172  59.4485 0001765  46.1717 127.9420 15.16780617  6990,6893.715,94.938,516.797,514.363,0.0
53748.0,STARLINK-4669,PAYLOAD,2022-10-19 14:00:01,15.15921099,0.0001833,53.2173,57.9362,46.0015,148.725,-0.0675419999999999,-0.01202321,0.0,0 STARLINK-4669,1 53748U 22107BA  22292.58334491 -.01202321  00000-0 -67542-1 0  9991,2 53748  53.2173  57.9362 0001833  46.0015 148.7250 15.15921099  1306,6896.321,94.992,519.45,516.922,0.0
53748.0,STARLINK-4669,PAYLOAD,2022-10-19 22:00:00,15.15066209,0.0001716,53.2172,56.4244,48.206,166.1023,-0.069411,-0.01205473,0.0,0 STARLINK-4669,1 53748U 22107BA  22292.91667824 -.01205473  00000-0 -69411-1 0  9995,2 53748  53.2172  56.4244 0001716  48.2060 166.1023 15.15066209  1307,6898.915,95.045,521.9630000000002,519.596,0.0
53748.0,STARLINK-4669,PAYLOAD,2022-10-20 06:00:00,15.14208473,0.0001653,53.2172,54.9129,50.9005,181.9619,-0.071109,-0.01205214,0.0,0 STARLINK-4669,1 53748U 22107BA  22293.25001157 -.01205214  00000-0 -71109-1 0  9994,2 53748  53.2172  54.9129 0001653  50.9005 181.9619 15.14208473  7145,6901.52,95.099,524.525,522.244,0.0
53748.0,STARLINK-4669,PAYLOAD,2022-10-20 14:00:01,15.13349358,0.000171,53.2173,53.4068,49.2022,201.1825,-0.0726059999999999,-0.01201377,0.0,0 STARLINK-4669,1 53748U 22107BA  22293.58334491 -.01201377  00000-0 -72606-1 0  9999,2 53748  53.2173  53.4068 0001710  49.2022 201.1825 15.13349358  1309,6904.130999999999,95.153,527.177,524.816,0.0
53748.0,STARLINK-4669,PAYLOAD,2022-10-20 22:00:00,15.12495565,0.0001763,53.2172,51.9008,41.6602,225.2163,-0.074736,-0.01206768,0.0,0 STARLINK-4669,1 53748U 22107BA  22293.91667824 -.01206768  00000-0 -74736-1 0  9990,2 53748  53.2172  51.9008 0001763  41.6602 225.2163 15.12495565  1306,6906.729,95.207,529.812,527.377,0.0
53748.0,STARLINK-4669,PAYLOAD,2022-10-21 06:00:00,15.11635672,0.0001558,53.2172,50.3954,50.5815,231.7596,-0.0762809999999999,-0.01202689,0.0,0 STARLINK-4669,1 53748U 22107BA  22294.25001157 -.01202689  00000-0 -76281-1 0  9994,2 53748  53.2172  50.3954 0001558  50.5815 231.7596 15.11635672  7296,6909.348000000001,95.261,532.29,530.137,0.0
53748.0,STARLINK-4669,PAYLOAD,2022-10-21 14:00:01,15.10778358,0.0001738,53.2172,48.8953,43.9216,252.8512,-0.078056,-0.01201705,0.0,0 STARLINK-4669,1 53748U 22107BA  22294.58334491 -.01201705  00000-0 -78056-1 0  9990,2 53748  53.2172  48.8953 0001738  43.9216 252.8512 15.10778358  1304,6911.962,95.315,535.028,532.626,0.0
53748.0,STARLINK-4669,PAYLOAD,2022-10-21 22:00:00,15.09856777,0.0001916999999999,53.2168,47.3947,42.9631,267.219,-0.066994,-0.01018957,0.0,0 STARLINK-4669,1 53748U 22107BA  22294.91667824 -.01018957  00000-0 -66994-1 0  9999,2 53748  53.2168  47.3947 0001917  42.9631 267.2190 15.09856777  1307,6914.774,95.373,537.965,535.314,0.0
53748.0,STARLINK-4669,PAYLOAD,2022-10-22 06:00:00,15.09010396,0.0001906,53.2173,45.8958,48.5978,273.971,-0.01676,-0.00258793,0.0,0 STARLINK-4669,1 53748U 22107BA  22295.25001157 -.00258793  00000-0 -16760-1 0  9997,2 53748  53.2173  45.8958 0001906  48.5978 273.9710 15.09010396  7444,6917.36,95.427,540.543,537.906,0.0
53748.0,STARLINK-4669,PAYLOAD,2022-10-22 14:00:01,15.08881205,0.0002266999999999,53.2163,44.397,46.1208,288.1161,-0.0020524,-0.00032842,0.0,0 STARLINK-4669,1 53748U 22107BA  22295.58334491 -.00032842  00000-0 -20524-2 0  9992,2 53748  53.2163  44.3970 0002267  46.1208 288.1161 15.08881205  1303,6917.754,95.435,541.188,538.0509999999998,0.0
53748.0,STARLINK-4669,PAYLOAD,2022-10-22 22:00:00,15.08837915,0.0002251999999999,53.2164,42.9002,48.8195,297.014,-0.00075015,-0.00012207,0.0,0 STARLINK-4669,1 53748U 22107BA  22295.91667824 -.00012207  00000-0 -75015-3 0  9997,2 53748  53.2164  42.9002 0002252  48.8195 297.0140 15.08837915  1307,6917.887,95.438,541.31,538.194,0.0
